{"fetched_at":"2026-07-18T17:29:34.864Z","source":"https://celestrak.org/NORAD/elements/gp.php?GROUP=qianfan&FORMAT=JSON","constellation":"qianfan","records":[{"OBJECT_NAME":"QIANFAN-113","OBJECT_ID":"2026-075E","EPOCH":"2026-07-18T07:51:43.319808","CLASSIFICATION_TYPE":"U","MEAN_MOTION":13.51018877,"ECCENTRICITY":0.00020075,"INCLINATION":88.9921,"RA_OF_ASC_NODE":317.8179,"ARG_OF_PERICENTER":107.751,"MEAN_ANOMALY":252.3861,"EPHEMERIS_TYPE":0,"NORAD_CAT_ID":68640,"ELEMENT_SET_NO":999,"REV_AT_EPOCH":1401,"BSTAR":0.00012685952,"MEAN_MOTION_DOT":9.4e-7,"MEAN_MOTION_DDOT":0},{"OBJECT_NAME":"QIANFAN-114","OBJECT_ID":"2026-075F","EPOCH":"2026-07-18T06:16:52.453344","CLASSIFICATION_TYPE":"U","MEAN_MOTION":13.5101761,"ECCENTRICITY":0.00020612,"INCLINATION":88.9916,"RA_OF_ASC_NODE":317.8422,"ARG_OF_PERICENTER":104.5616,"MEAN_ANOMALY":255.5764,"EPHEMERIS_TYPE":0,"NORAD_CAT_ID":68641,"ELEMENT_SET_NO":999,"REV_AT_EPOCH":1399,"BSTAR":0.00011211347,"MEAN_MOTION_DOT":8.4e-7,"MEAN_MOTION_DDOT":0},{"OBJECT_NAME":"QIANFAN-115","OBJECT_ID":"2026-075G","EPOCH":"2026-07-18T06:58:14.615616","CLASSIFICATION_TYPE":"U","MEAN_MOTION":13.51014351,"ECCENTRICITY":0.00022184,"INCLINATION":88.9917,"RA_OF_ASC_NODE":317.8465,"ARG_OF_PERICENTER":107.0198,"MEAN_ANOMALY":253.1196,"EPHEMERIS_TYPE":0,"NORAD_CAT_ID":68642,"ELEMENT_SET_NO":999,"REV_AT_EPOCH":1399,"BSTAR":0.0001235333,"MEAN_MOTION_DOT":9.2e-7,"MEAN_MOTION_DDOT":0},{"OBJECT_NAME":"QIANFAN-116","OBJECT_ID":"2026-075H","EPOCH":"2026-07-18T06:40:28.373088","CLASSIFICATION_TYPE":"U","MEAN_MOTION":13.51014911,"ECCENTRICITY":0.00020312,"INCLINATION":88.991,"RA_OF_ASC_NODE":317.8056,"ARG_OF_PERICENTER":114.5277,"MEAN_ANOMALY":245.6086,"EPHEMERIS_TYPE":0,"NORAD_CAT_ID":68643,"ELEMENT_SET_NO":999,"REV_AT_EPOCH":1400,"BSTAR":0.00012850148,"MEAN_MOTION_DOT":9.5e-7,"MEAN_MOTION_DDOT":0},{"OBJECT_NAME":"QIANFAN-117","OBJECT_ID":"2026-075J","EPOCH":"2026-07-18T06:22:41.248416","CLASSIFICATION_TYPE":"U","MEAN_MOTION":13.51012648,"ECCENTRICITY":0.0002191,"INCLINATION":88.9914,"RA_OF_ASC_NODE":317.824,"ARG_OF_PERICENTER":110.9303,"MEAN_ANOMALY":249.2083,"EPHEMERIS_TYPE":0,"NORAD_CAT_ID":68644,"ELEMENT_SET_NO":999,"REV_AT_EPOCH":1400,"BSTAR":0.000012207748,"MEAN_MOTION_DOT":2e-7,"MEAN_MOTION_DDOT":0},{"OBJECT_NAME":"QIANFAN-118","OBJECT_ID":"2026-075K","EPOCH":"2026-07-18T07:10:05.893248","CLASSIFICATION_TYPE":"U","MEAN_MOTION":13.51014682,"ECCENTRICITY":0.00019694,"INCLINATION":88.9919,"RA_OF_ASC_NODE":317.8302,"ARG_OF_PERICENTER":102.5823,"MEAN_ANOMALY":257.5549,"EPHEMERIS_TYPE":0,"NORAD_CAT_ID":68645,"ELEMENT_SET_NO":999,"REV_AT_EPOCH":1400,"BSTAR":0.00011925358,"MEAN_MOTION_DOT":8.9e-7,"MEAN_MOTION_DDOT":0},{"OBJECT_NAME":"QIANFAN-119","OBJECT_ID":"2026-075L","EPOCH":"2026-07-18T06:34:35.777280","CLASSIFICATION_TYPE":"U","MEAN_MOTION":13.51020943,"ECCENTRICITY":0.00022988,"INCLINATION":88.9919,"RA_OF_ASC_NODE":317.8283,"ARG_OF_PERICENTER":112.1239,"MEAN_ANOMALY":248.0156,"EPHEMERIS_TYPE":0,"NORAD_CAT_ID":68646,"ELEMENT_SET_NO":999,"REV_AT_EPOCH":1400,"BSTAR":0.00011025396,"MEAN_MOTION_DOT":8.3e-7,"MEAN_MOTION_DDOT":0},{"OBJECT_NAME":"QIANFAN-120","OBJECT_ID":"2026-075M","EPOCH":"2026-07-18T06:52:31.927296","CLASSIFICATION_TYPE":"U","MEAN_MOTION":13.51021439,"ECCENTRICITY":0.00024479,"INCLINATION":88.9921,"RA_OF_ASC_NODE":317.8126,"ARG_OF_PERICENTER":111.8245,"MEAN_ANOMALY":248.3167,"EPHEMERIS_TYPE":0,"NORAD_CAT_ID":68647,"ELEMENT_SET_NO":999,"REV_AT_EPOCH":1401,"BSTAR":0.00013402329,"MEAN_MOTION_DOT":9.9e-7,"MEAN_MOTION_DDOT":0},{"OBJECT_NAME":"QIANFAN-121","OBJECT_ID":"2026-075N","EPOCH":"2026-07-18T07:27:55.431072","CLASSIFICATION_TYPE":"U","MEAN_MOTION":13.51013495,"ECCENTRICITY":0.00020463,"INCLINATION":88.9919,"RA_OF_ASC_NODE":317.8143,"ARG_OF_PERICENTER":102.7652,"MEAN_ANOMALY":257.3728,"EPHEMERIS_TYPE":0,"NORAD_CAT_ID":68648,"ELEMENT_SET_NO":999,"REV_AT_EPOCH":1401,"BSTAR":0.0001150786,"MEAN_MOTION_DOT":8.6e-7,"MEAN_MOTION_DDOT":0},{"OBJECT_NAME":"QIANFAN-122","OBJECT_ID":"2026-075P","EPOCH":"2026-07-18T07:16:14.100672","CLASSIFICATION_TYPE":"U","MEAN_MOTION":13.51017179,"ECCENTRICITY":0.00022194,"INCLINATION":88.9917,"RA_OF_ASC_NODE":317.8129,"ARG_OF_PERICENTER":112.6468,"MEAN_ANOMALY":247.4918,"EPHEMERIS_TYPE":0,"NORAD_CAT_ID":68649,"ELEMENT_SET_NO":999,"REV_AT_EPOCH":1400,"BSTAR":0.00011174325,"MEAN_MOTION_DOT":8.4e-7,"MEAN_MOTION_DDOT":0},{"OBJECT_NAME":"QIANFAN-123","OBJECT_ID":"2026-075Q","EPOCH":"2026-07-18T06:28:53.961600","CLASSIFICATION_TYPE":"U","MEAN_MOTION":13.51015554,"ECCENTRICITY":0.00023498,"INCLINATION":88.9914,"RA_OF_ASC_NODE":317.8053,"ARG_OF_PERICENTER":117.2512,"MEAN_ANOMALY":242.8879,"EPHEMERIS_TYPE":0,"NORAD_CAT_ID":68650,"ELEMENT_SET_NO":999,"REV_AT_EPOCH":1398,"BSTAR":0.00010734758,"MEAN_MOTION_DOT":8.1e-7,"MEAN_MOTION_DDOT":0},{"OBJECT_NAME":"QIANFAN-124","OBJECT_ID":"2026-075R","EPOCH":"2026-07-18T07:04:23.689632","CLASSIFICATION_TYPE":"U","MEAN_MOTION":13.51016843,"ECCENTRICITY":0.00022403,"INCLINATION":88.9917,"RA_OF_ASC_NODE":317.8125,"ARG_OF_PERICENTER":114.4925,"MEAN_ANOMALY":245.646,"EPHEMERIS_TYPE":0,"NORAD_CAT_ID":68651,"ELEMENT_SET_NO":999,"REV_AT_EPOCH":1401,"BSTAR":0.00014537909,"MEAN_MOTION_DOT":0.00000106,"MEAN_MOTION_DDOT":0},{"OBJECT_NAME":"QIANFAN-125","OBJECT_ID":"2026-075S","EPOCH":"2026-07-18T07:22:00.484320","CLASSIFICATION_TYPE":"U","MEAN_MOTION":13.51013709,"ECCENTRICITY":0.00020194,"INCLINATION":88.9917,"RA_OF_ASC_NODE":317.8134,"ARG_OF_PERICENTER":103.2974,"MEAN_ANOMALY":256.8402,"EPHEMERIS_TYPE":0,"NORAD_CAT_ID":68652,"ELEMENT_SET_NO":999,"REV_AT_EPOCH":1401,"BSTAR":0.00010833068,"MEAN_MOTION_DOT":8.2e-7,"MEAN_MOTION_DDOT":0},{"OBJECT_NAME":"QIANFAN-126","OBJECT_ID":"2026-075T","EPOCH":"2026-07-18T07:33:57.164544","CLASSIFICATION_TYPE":"U","MEAN_MOTION":13.51018786,"ECCENTRICITY":0.00023615,"INCLINATION":88.9921,"RA_OF_ASC_NODE":317.7794,"ARG_OF_PERICENTER":116.5623,"MEAN_ANOMALY":243.577,"EPHEMERIS_TYPE":0,"NORAD_CAT_ID":68653,"ELEMENT_SET_NO":999,"REV_AT_EPOCH":1403,"BSTAR":0.00011992453,"MEAN_MOTION_DOT":8.9e-7,"MEAN_MOTION_DDOT":0},{"OBJECT_NAME":"QIANFAN-127","OBJECT_ID":"2026-104A","EPOCH":"2026-07-18T06:19:19.014528","CLASSIFICATION_TYPE":"U","MEAN_MOTION":13.57565835,"ECCENTRICITY":0.00091203,"INCLINATION":88.9917,"RA_OF_ASC_NODE":338.2935,"ARG_OF_PERICENTER":356.6721,"MEAN_ANOMALY":3.4372,"EPHEMERIS_TYPE":0,"NORAD_CAT_ID":69073,"ELEMENT_SET_NO":999,"REV_AT_EPOCH":935,"BSTAR":0.000024603779,"MEAN_MOTION_DOT":3e-7,"MEAN_MOTION_DDOT":0},{"OBJECT_NAME":"QIANFAN-128","OBJECT_ID":"2026-104B","EPOCH":"2026-07-17T21:14:22.950240","CLASSIFICATION_TYPE":"U","MEAN_MOTION":13.53214177,"ECCENTRICITY":0.00089681,"INCLINATION":88.9869,"RA_OF_ASC_NODE":338.3657,"ARG_OF_PERICENTER":1.453,"MEAN_ANOMALY":358.6646,"EPHEMERIS_TYPE":0,"NORAD_CAT_ID":69074,"ELEMENT_SET_NO":999,"REV_AT_EPOCH":928,"BSTAR":-6.64702e-7,"MEAN_MOTION_DOT":1.2e-7,"MEAN_MOTION_DDOT":0}]}
