QIANFAN-113             
1 68640U 26075E   26199.32758472  .00000094  00000+0  12686-3 0  9997
2 68640  88.9921 317.8179 0002007 107.7510 252.3861 13.51018877 14013
QIANFAN-114             
1 68641U 26075F   26199.26171821  .00000084  00000+0  11211-3 0  9990
2 68641  88.9916 317.8422 0002061 104.5616 255.5764 13.51017610 13998
QIANFAN-115             
1 68642U 26075G   26199.29044694  .00000092  00000+0  12353-3 0  9998
2 68642  88.9917 317.8465 0002218 107.0198 253.1196 13.51014351 13996
QIANFAN-116             
1 68643U 26075H   26199.27810617  .00000095  00000+0  12850-3 0  9998
2 68643  88.9910 317.8056 0002031 114.5277 245.6086 13.51014911 14009
QIANFAN-117             
1 68644U 26075J   26199.26575519  .00000020  00000+0  12208-4 0  9993
2 68644  88.9914 317.8240 0002191 110.9303 249.2083 13.51012648 14008
QIANFAN-118             
1 68645U 26075K   26199.29867932  .00000089  00000+0  11925-3 0  9999
2 68645  88.9919 317.8302 0001969 102.5823 257.5549 13.51014682 14008
QIANFAN-119             
1 68646U 26075L   26199.27402520  .00000083  00000+0  11025-3 0  9991
2 68646  88.9919 317.8283 0002298 112.1239 248.0156 13.51020943 14007
QIANFAN-120             
1 68647U 26075M   26199.28648064  .00000099  00000+0  13402-3 0  9996
2 68647  88.9921 317.8126 0002447 111.8245 248.3167 13.51021439 14013
QIANFAN-121             
1 68648U 26075N   26199.31105823  .00000086  00000+0  11508-3 0  9993
2 68648  88.9919 317.8143 0002046 102.7652 257.3728 13.51013495 14012
QIANFAN-122             
1 68649U 26075P   26199.30294098  .00000084  00000+0  11174-3 0  9993
2 68649  88.9917 317.8129 0002219 112.6468 247.4918 13.51017179 14005
QIANFAN-123             
1 68650U 26075Q   26199.27006900  .00000081  00000+0  10735-3 0  9993
2 68650  88.9914 317.8053 0002349 117.2512 242.8879 13.51015554 13981
QIANFAN-124             
1 68651U 26075R   26199.29471863  .00000106  00000+0  14538-3 0  9993
2 68651  88.9917 317.8125 0002240 114.4925 245.6460 13.51016843 14016
QIANFAN-125             
1 68652U 26075S   26199.30695005  .00000082  00000+0  10833-3 0  9999
2 68652  88.9917 317.8134 0002019 103.2974 256.8402 13.51013709 14019
QIANFAN-126             
1 68653U 26075T   26199.31524496  .00000089  00000+0  11992-3 0  9990
2 68653  88.9921 317.7794 0002361 116.5623 243.5770 13.51018786 14037
QIANFAN-127             
1 69073U 26104A   26199.26341452  .00000030  00000+0  24604-4 0  9994
2 69073  88.9917 338.2935 0009120 356.6721   3.4372 13.57565835  9358
QIANFAN-128             
1 69074U 26104B   26198.88498785  .00000012  00000+0 -66470-6 0  9994
2 69074  88.9869 338.3657 0008968   1.4530 358.6646 13.53214177  9286
